[{"OBJECT_NAME":"STARLINK-31208","OBJECT_ID":"2024-038Q","EPOCH":"2025-08-02T07:37:06.627648","MEAN_MOTION":15.25910089,"ECCENTRICITY":0.0001504,"INCLINATION":43.0023,"RA_OF_ASC_NODE":184.5515,"ARG_OF_PERICENTER":271.4907,"MEAN_ANOMALY":88.5772,"EPHEMERIS_TYPE":0,"CLASSIFICATION_TYPE":"U","NORAD_CAT_ID":59037,"ELEMENT_SET_NO":999,"REV_AT_EPOCH":8128,"BSTAR":4.636e-5,"MEAN_MOTION_DOT":9.55e-6,"MEAN_MOTION_DDOT":0},{"OBJECT_NAME":"STARLINK-31235","OBJECT_ID":"2024-038R","EPOCH":"2025-08-02T06:48:48.056256","MEAN_MOTION":15.27581065,"ECCENTRICITY":5.71e-5,"INCLINATION":42.9991,"RA_OF_ASC_NODE":182.5897,"ARG_OF_PERICENTER":237.3835,"MEAN_ANOMALY":122.6962,"EPHEMERIS_TYPE":0,"CLASSIFICATION_TYPE":"U","NORAD_CAT_ID":59038,"ELEMENT_SET_NO":999,"REV_AT_EPOCH":8124,"BSTAR":-3.4566e-5,"MEAN_MOTION_DOT":-1.213e-5,"MEAN_MOTION_DDOT":0},{"OBJECT_NAME":"STARLINK-31220","OBJECT_ID":"2024-038S","EPOCH":"2025-08-02T07:30:47.894976","MEAN_MOTION":15.25911845,"ECCENTRICITY":0.0001231,"INCLINATION":43.0029,"RA_OF_ASC_NODE":185.4006,"ARG_OF_PERICENTER":258.2703,"MEAN_ANOMALY":101.801,"EPHEMERIS_TYPE":0,"CLASSIFICATION_TYPE":"U","NORAD_CAT_ID":59039,"ELEMENT_SET_NO":999,"REV_AT_EPOCH":8121,"BSTAR":4.6677e-5,"MEAN_MOTION_DOT":9.64e-6,"MEAN_MOTION_DDOT":0},{"OBJECT_NAME":"STARLINK-31225","OBJECT_ID":"2024-038T","EPOCH":"2025-08-02T06:28:26.358528","MEAN_MOTION":15.27576659,"ECCENTRICITY":9.41e-5,"INCLINATION":42.9981,"RA_OF_ASC_NODE":182.4457,"ARG_OF_PERICENTER":255.7535,"MEAN_ANOMALY":104.3212,"EPHEMERIS_TYPE":0,"CLASSIFICATION_TYPE":"U","NORAD_CAT_ID":59040,"ELEMENT_SET_NO":999,"REV_AT_EPOCH":8113,"BSTAR":0.00013393,"MEAN_MOTION_DOT":3.425e-5,"MEAN_MOTION_DDOT":0},{"OBJECT_NAME":"STARLINK-31240","OBJECT_ID":"2024-038U","EPOCH":"2025-08-02T05:49:46.542720","MEAN_MOTION":15.27609058,"ECCENTRICITY":0.000216,"INCLINATION":43.0053,"RA_OF_ASC_NODE":183.1571,"ARG_OF_PERICENTER":290.9134,"MEAN_ANOMALY":69.1486,"EPHEMERIS_TYPE":0,"CLASSIFICATION_TYPE":"U","NORAD_CAT_ID":59041,"ELEMENT_SET_NO":999,"REV_AT_EPOCH":8123,"BSTAR":-0.00050676,"MEAN_MOTION_DOT":-0.00014194,"MEAN_MOTION_DDOT":0},{"OBJECT_NAME":"STARLINK-31202","OBJECT_ID":"2024-038V","EPOCH":"2025-08-02T05:55:08.870880","MEAN_MOTION":15.27575342,"ECCENTRICITY":0.0001479,"INCLINATION":43.0018,"RA_OF_ASC_NODE":182.3212,"ARG_OF_PERICENTER":269.9251,"MEAN_ANOMALY":90.1431,"EPHEMERIS_TYPE":0,"CLASSIFICATION_TYPE":"U","NORAD_CAT_ID":59042,"ELEMENT_SET_NO":999,"REV_AT_EPOCH":8130,"BSTAR":2.0984e-5,"MEAN_MOTION_DOT":3.15e-6,"MEAN_MOTION_DDOT":0},{"OBJECT_NAME":"STARLINK-31234","OBJECT_ID":"2024-038W","EPOCH":"2025-08-02T05:40:32.600352","MEAN_MOTION":15.27585607,"ECCENTRICITY":0.0001613,"INCLINATION":43.0032,"RA_OF_ASC_NODE":183.1078,"ARG_OF_PERICENTER":272.5625,"MEAN_ANOMALY":87.5041,"EPHEMERIS_TYPE":0,"CLASSIFICATION_TYPE":"U","NORAD_CAT_ID":59043,"ELEMENT_SET_NO":999,"REV_AT_EPOCH":8112,"BSTAR":3.5869e-5,"MEAN_MOTION_DOT":7.25e-6,"MEAN_MOTION_DDOT":0},{"OBJECT_NAME":"STARLINK-31153","OBJECT_ID":"2024-038X","EPOCH":"2025-08-01T22:52:28.142400","MEAN_MOTION":15.27575225,"ECCENTRICITY":8.52e-5,"INCLINATION":43.0007,"RA_OF_ASC_NODE":184.4083,"ARG_OF_PERICENTER":272.3038,"MEAN_ANOMALY":87.7716,"EPHEMERIS_TYPE":0,"CLASSIFICATION_TYPE":"U","NORAD_CAT_ID":59044,"ELEMENT_SET_NO":999,"REV_AT_EPOCH":8108,"BSTAR":2.4577e-5,"MEAN_MOTION_DOT":4.14e-6,"MEAN_MOTION_DDOT":0},{"OBJECT_NAME":"STARLINK-31241","OBJECT_ID":"2024-038Y","EPOCH":"2025-08-02T07:20:15.534240","MEAN_MOTION":15.27575024,"ECCENTRICITY":0.000121,"INCLINATION":43.0026,"RA_OF_ASC_NODE":182.7614,"ARG_OF_PERICENTER":273.3347,"MEAN_ANOMALY":86.7366,"EPHEMERIS_TYPE":0,"CLASSIFICATION_TYPE":"U","NORAD_CAT_ID":59045,"ELEMENT_SET_NO":999,"REV_AT_EPOCH":8130,"BSTAR":6.9982e-5,"MEAN_MOTION_DOT":1.664e-5,"MEAN_MOTION_DDOT":0},{"OBJECT_NAME":"STARLINK-31205","OBJECT_ID":"2024-038Z","EPOCH":"2025-08-02T07:09:09.360000","MEAN_MOTION":15.27574425,"ECCENTRICITY":9.69e-5,"INCLINATION":43.0017,"RA_OF_ASC_NODE":182.7025,"ARG_OF_PERICENTER":265.2322,"MEAN_ANOMALY":94.8419,"EPHEMERIS_TYPE":0,"CLASSIFICATION_TYPE":"U","NORAD_CAT_ID":59046,"ELEMENT_SET_NO":999,"REV_AT_EPOCH":8124,"BSTAR":5.0879e-5,"MEAN_MOTION_DOT":1.138e-5,"MEAN_MOTION_DDOT":0},{"OBJECT_NAME":"STARLINK-31265","OBJECT_ID":"2024-041A","EPOCH":"2025-08-02T17:24:00.509760","MEAN_MOTION":15.27584307,"ECCENTRICITY":3.94e-5,"INCLINATION":42.993,"RA_OF_ASC_NODE":107.3087,"ARG_OF_PERICENTER":305.8995,"MEAN_ANOMALY":54.182,"EPHEMERIS_TYPE":0,"CLASSIFICATION_TYPE":"U","NORAD_CAT_ID":59074,"ELEMENT_SET_NO":999,"REV_AT_EPOCH":8079,"BSTAR":3.659e-5,"MEAN_MOTION_DOT":7.46e-6,"MEAN_MOTION_DDOT":0},{"OBJECT_NAME":"STARLINK-31276","OBJECT_ID":"2024-041B","EPOCH":"2025-08-02T02:30:21.119040","MEAN_MOTION":15.27570543,"ECCENTRICITY":0.0001279,"INCLINATION":43.0017,"RA_OF_ASC_NODE":110.3965,"ARG_OF_PERICENTER":280.8575,"MEAN_ANOMALY":79.2133,"EPHEMERIS_TYPE":0,"CLASSIFICATION_TYPE":"U","NORAD_CAT_ID":59075,"ELEMENT_SET_NO":999,"REV_AT_EPOCH":8074,"BSTAR":-3.7973e-5,"MEAN_MOTION_DOT":-1.307e-5,"MEAN_MOTION_DDOT":0},{"OBJECT_NAME":"STARLINK-31259","OBJECT_ID":"2024-041C","EPOCH":"2025-08-02T16:43:13.004256","MEAN_MOTION":15.27515571,"ECCENTRICITY":0.0004482,"INCLINATION":42.9983,"RA_OF_ASC_NODE":107.1087,"ARG_OF_PERICENTER":284.9889,"MEAN_ANOMALY":75.0467,"EPHEMERIS_TYPE":0,"CLASSIFICATION_TYPE":"U","NORAD_CAT_ID":59076,"ELEMENT_SET_NO":999,"REV_AT_EPOCH":8079,"BSTAR":0.0019395,"MEAN_MOTION_DOT":0.00053402,"MEAN_MOTION_DDOT":0},{"OBJECT_NAME":"STARLINK-31281","OBJECT_ID":"2024-041D","EPOCH":"2025-08-02T01:07:17.120352","MEAN_MOTION":15.27581909,"ECCENTRICITY":0.0001439,"INCLINATION":43.0031,"RA_OF_ASC_NODE":110.8197,"ARG_OF_PERICENTER":279.694,"MEAN_ANOMALY":80.3749,"EPHEMERIS_TYPE":0,"CLASSIFICATION_TYPE":"U","NORAD_CAT_ID":59077,"ELEMENT_SET_NO":999,"REV_AT_EPOCH":8073,"BSTAR":4.9771e-5,"MEAN_MOTION_DOT":1.108e-5,"MEAN_MOTION_DDOT":0},{"OBJECT_NAME":"STARLINK-31274","OBJECT_ID":"2024-041E","EPOCH":"2025-08-02T03:23:59.979552","MEAN_MOTION":15.27577493,"ECCENTRICITY":0.0001452,"INCLINATION":42.9971,"RA_OF_ASC_NODE":110.6694,"ARG_OF_PERICENTER":264.1015,"MEAN_ANOMALY":95.9671,"EPHEMERIS_TYPE":0,"CLASSIFICATION_TYPE":"U","NORAD_CAT_ID":59078,"ELEMENT_SET_NO":999,"REV_AT_EPOCH":8069,"BSTAR":0.00022756,"MEAN_MOTION_DOT":6.005e-5,"MEAN_MOTION_DDOT":0},{"OBJECT_NAME":"STARLINK-31257","OBJECT_ID":"2024-041F","EPOCH":"2025-08-02T02:59:56.329728","MEAN_MOTION":15.27607251,"ECCENTRICITY":0.000255,"INCLINATION":43.0037,"RA_OF_ASC_NODE":110.5379,"ARG_OF_PERICENTER":250.4319,"MEAN_ANOMALY":109.6257,"EPHEMERIS_TYPE":0,"CLASSIFICATION_TYPE":"U","NORAD_CAT_ID":59079,"ELEMENT_SET_NO":999,"REV_AT_EPOCH":8069,"BSTAR":-0.00031381,"MEAN_MOTION_DOT":-8.896e-5,"MEAN_MOTION_DDOT":0},{"OBJECT_NAME":"STARLINK-31299","OBJECT_ID":"2024-041G","EPOCH":"2025-08-02T20:18:38.262816","MEAN_MOTION":15.27579359,"ECCENTRICITY":0.0001502,"INCLINATION":43.0009,"RA_OF_ASC_NODE":8.7738,"ARG_OF_PERICENTER":196.1481,"MEAN_ANOMALY":163.9323,"EPHEMERIS_TYPE":0,"CLASSIFICATION_TYPE":"U","NORAD_CAT_ID":59080,"ELEMENT_SET_NO":999,"REV_AT_EPOCH":8196,"BSTAR":2.6909e-5,"MEAN_MOTION_DOT":4.78e-6,"MEAN_MOTION_DDOT":0}]
