STARLINK-31208          
1 59037U 24038Q   25214.31743782  .00000955  00000+0  46360-4 0  9991
2 59037  43.0023 184.5515 0001504 271.4907  88.5772 15.25910089 81283
STARLINK-31235          
1 59038U 24038R   25214.28388954 -.00001213  00000+0 -34566-4 0  9999
2 59038  42.9991 182.5897 0000571 237.3835 122.6962 15.27581065 81248
STARLINK-31220          
1 59039U 24038S   25214.31305434  .00000964  00000+0  46677-4 0  9992
2 59039  43.0029 185.4006 0001231 258.2703 101.8010 15.25911845 81218
STARLINK-31225          
1 59040U 24038T   25214.26974952  .00003425  00000+0  13393-3 0  9998
2 59040  42.9981 182.4457 0000941 255.7535 104.3212 15.27576659 81139
STARLINK-31240          
1 59041U 24038U   25214.24289980 -.00014194  00000+0 -50676-3 0  9999
2 59041  43.0053 183.1571 0002160 290.9134  69.1486 15.27609058 81230
STARLINK-31202          
1 59042U 24038V   25214.24663045  .00000315  00000+0  20984-4 0  9996
2 59042  43.0018 182.3212 0001479 269.9251  90.1431 15.27575342 81303
STARLINK-31234          
1 59043U 24038W   25214.23648843  .00000725  00000+0  35869-4 0  9998
2 59043  43.0032 183.1078 0001613 272.5625  87.5041 15.27585607 81126
STARLINK-31153          
1 59044U 24038X   25213.95310350  .00000414  00000+0  24577-4 0  9995
2 59044  43.0007 184.4083 0000852 272.3038  87.7716 15.27575225 81080
STARLINK-31241          
1 59045U 24038Y   25214.30573535  .00001664  00000+0  69982-4 0  9999
2 59045  43.0026 182.7614 0001210 273.3347  86.7366 15.27575024 81308
STARLINK-31205          
1 59046U 24038Z   25214.29802500  .00001138  00000+0  50879-4 0  9996
2 59046  43.0017 182.7025 0000969 265.2322  94.8419 15.27574425 81244
STARLINK-31265          
1 59074U 24041A   25214.72500590  .00000746  00000+0  36590-4 0  9991
2 59074  42.9930 107.3087 0000394 305.8995  54.1820 15.27584307 80791
STARLINK-31276          
1 59075U 24041B   25214.10441110 -.00001307  00000+0 -37973-4 0  9998
2 59075  43.0017 110.3965 0001279 280.8575  79.2133 15.27570543 80745
STARLINK-31259          
1 59076U 24041C   25214.69667829  .00053402  00000+0  19395-2 0  9997
2 59076  42.9983 107.1087 0004482 284.9889  75.0467 15.27515571 80796
STARLINK-31281          
1 59077U 24041D   25214.04672593  .00001108  00000+0  49771-4 0  9990
2 59077  43.0031 110.8197 0001439 279.6940  80.3749 15.27581909 80738
STARLINK-31274          
1 59078U 24041E   25214.14166643  .00006005  00000+0  22756-3 0  9990
2 59078  42.9971 110.6694 0001452 264.1015  95.9671 15.27577493 80691
STARLINK-31257          
1 59079U 24041F   25214.12495752 -.00008896  00000+0 -31381-3 0  9991
2 59079  43.0037 110.5379 0002550 250.4319 109.6257 15.27607251 80690
STARLINK-31299          
1 59080U 24041G   25214.84627619  .00000478  00000+0  26909-4 0  9998
2 59080  43.0009   8.7738 0001502 196.1481 163.9323 15.27579359 81965
